STARLINK-31815          
1 59801U 24093V   26068.42716813  .00000738  00000+0  36342-4 0  9994
2 59801  43.0003 210.5145 0001358 281.4002  78.6697 15.27576930102659
TEVEL2-3                
1 63218U 25052J   26068.64540225  .00020365  00000+0  69446-3 0  9991
2 63218  97.3994 324.7775 0004761 105.7353 254.4413 15.30377031 54855
